XW-2B                   
1 40911U 15049N   17346.45523869  .00000864  00000-0  49725-4 0  9996
2 40911  97.4584 348.6337 0013338 320.8878  39.1389 15.15001067123120
